#dP2023  5  7 12  0  0.00000000      96 __u+U ITR00 EXT  IAC
## 2261  43200.00000000   900.00000000 60071 0.5000000000000
+  119   C06C07C08C09C10C11C12C13C14C16C19C20C21C22C23C24C25
+        C26C27C28C29C30C32C33C34C35C36C37C38C39C40C41C42C43
+        C44C45C46E02E03E04E05E07E08E09E10E11E12E13E14E15E18
+        E19E21E24E25E26E27E30E31E33E34E36G01G02G03G04G05G06
+        G07G08G09G10G11G12G13G14G15G16G17G18G19G20G21G22G23
+        G24G25G26G27G28G29G30G31G32J02J03J04R01R02R03R04R05
+        R07R08R09R11R12R13R14R15R16R17R18R19R20R21R22R24R25
++        11  9 10  9  9 10  9 10  8 11  8  9  8 10  9  7  9
++         9  8  7  8  8  8  8 10  8  8 10  9  9 11 10  8  9
++         8  8  9  7  8  8  8  7  7  8  8  8  8  7  8  7  7
++         8  9  8  7  8  8  8 10  8  7  8  8  8  8  7  8  7
++         7  7  8  8  7  7  7  7  7  8  7  8  8  8  7  8  6
++         7  7  8  7  7  7  8  7  8  8  9  9  8  7  8  8  7
++         9  7  8  6  7 10  8  8  9  7  7  9  9  7  8  8  8
%c M  cc GPS ccc cccc cccc cccc cccc ccccc ccccc ccccc ccccc
%c cc cc ccc ccc cccc cccc cccc cccc ccccc ccccc ccccc ccccc
%f  0.0000000  0.000000000  0.00000000000  0.000000000000000
%f  0.0000000  0.000000000  0.00000000000  0.000000000000000
%i    0    0    0    0      0      0      0      0         0
%i    0    0    0    0      0      0      0      0         0
/* IAC                                ULTRA-RAPID PREDICTION
/* S/V CLOCKS ARE ALIGNED TO GNSS TIME                      
/* G:C1WC2W R:C1PC2P E:C1XC5X C:C2IC6I J:C1CC2S             
/* PCV:IGS20_2247 OL/AL:FES2004  NONE     YN ORB:CoN CLK:CoN
*  2023 05 08  1 30  0.00000000
PC06 -11637.009124  40368.588203   -868.395262   -193.246376
PC07  -4513.589885  29062.393159  30306.559824     14.435104
PC08 -17766.642734  23223.336206 -30458.852603    490.277162
PC09  -5826.947530  40464.134437   9501.375802    679.545083
PC10   4442.554518  32353.268270  27218.153980    -52.609127
PC11 -12601.543140  18557.685403  16670.741808    607.206445
PC12 -15360.220134  -1491.399290  23280.081298    623.586119
PC13  -9659.571709  24419.820751 -32909.915477    269.720360
PC14 -14470.553010   8749.732399 -22165.570442    228.278791
PC16 -13486.406910  39535.836495  -4172.893367     85.635072
PC19   5242.362845 -15145.402243  22872.292692   -907.865854
PC20  20396.631399  -2216.827245  18950.692548    581.448925
PC21 -24385.962940 -13145.162389  -3199.008917   -913.314772
PC22 -13693.843594 -20019.790257  13775.131107   -498.964606
PC23   2622.670567  16657.762954  22239.816673   -922.994796
PC24 -25852.773479   9470.337927  -4633.532139    -80.539306
PC25 -15280.452140  19180.109457  13328.030873    122.043513
PC26 -20813.450489  -3643.953565 -18258.803503   -117.144619
PC27  14194.865948  11080.270593 -21338.875382    136.910215
PC28   5561.585075  25370.279926 -10207.941785    101.177716
PC29   6603.326211 -25707.108957  -8637.094318    117.394260
PC30  15140.889240  -9709.727848 -21353.683738     -0.093532
PC32  24514.682826  12975.774923   3180.555738   -565.869515
PC33  -5197.847947  15164.134559 -22834.911231   -879.342262
PC34 -14877.456101  11088.169817  20819.593104    165.795881
PC35  -6018.090366 -25567.673173   9470.387613    631.795386
PC36  16343.568082 -18672.799696 -12738.028923   -454.936968
PC37  19862.984445   5091.830396  18932.267003   -784.918663
PC38 -24677.604853  24564.152276 -23847.504028     76.870884
PC39 -14553.501730  38080.334642 -10270.279134     -2.851647
PC40  -7188.459386  24180.527770  33819.867868    -22.551584
PC41  13249.529465  20003.031842 -14203.992835   -949.447645
PC42 -21169.094126   1149.027802 -18082.431783   -701.906210
PC43  -7187.385333  25282.237134   9325.901560     20.347022
PC44 -14648.144628 -10818.864272  21136.513376     99.711237
PC45  -3082.825455 -16344.004092 -22405.074293    -94.767966
PC46  25632.661782 -10523.538497   3145.249717    -52.437563
PE02  13957.848085 -13964.808053 -22053.820961     36.834292
PE03   4649.903777 -21894.023634  19367.888495   -676.760259
PE04  10201.484194  27532.337978  -3752.237975   -117.397074
PE05  17117.912425  -3219.791372  23942.921690    -69.549405
PE07 -19335.018308 -17289.686963 -14238.970566    -43.392805
PE08 -10055.458395 -27534.563661   4068.295258    -79.546131
PE09  19271.827299  17448.268160  14177.345722     -7.005223
PE10   7564.246850  15998.389487 -23739.054052   -532.089195
PE11  15184.302013   6102.763827 -24681.358622   1854.922751
PE12   -471.314169  22564.653138 -19147.336484   -529.413555
PE13 -14621.826046  -6857.864974  24802.736264    -19.092144
PE14 -12901.612098  10718.607046  18804.380970    218.835533
PE15    802.242893 -22735.537245  18944.004540    -20.126462
PE18  20211.633173  -2294.335262 -23708.109965     38.170833
PE19  -6626.268034  19908.412831 -20864.789984  -2585.953741
PE21 -27884.776354   3964.539832   9103.736430   -527.815992
PE24  26028.074493   9441.948887  10423.755378    -86.512541
PE25  28010.432216  -3744.475652  -8798.784114   -604.685032
PE26 -21409.640959  13440.239206  15393.934402     97.686452
PE27 -26474.479530  -8917.975874  -9798.480925    -43.968957
PE30  -8797.837427 -16582.380330 -22901.494981   -154.913871
PE31   9478.466137  16416.728465  22737.527382   -523.258120
PE33 -15620.953689  25057.825248  -1956.524786   -444.771424
PE34  15502.051872 -25128.420548   2089.814033    -44.241500
PE36  21297.874611 -12843.549138 -16064.541031    -52.789426
PG01 -13748.141088  22145.673749  -4303.305572    187.038873
PG02 -13978.790300  -6543.198244  22217.654083   -598.448799
PG03  -9487.529409  13146.390041 -21142.448966   -309.566075
PG04  -2762.160664  21759.021107 -14885.478835     35.797287
PG05  23614.946757  -5623.639090  10743.857755   -126.341091
PG06  13577.110569   6031.615878 -21964.258383    588.123619
PG07  -1365.478282  21050.346064  16292.693409    183.617543
PG08 -10969.529873  11619.740838  21080.326901   -121.348115
PG09   6426.304805  25001.181868  -6224.233307   -163.727283
PG10 -20520.207291 -11295.085419  12991.875421    -36.007060
PG11  20282.076914  -7757.217749 -15262.856983   -188.873483
PG12  13017.507659 -11707.731369 -20226.992146   -373.292964
PG13  14575.139542  -3355.865458  21775.006791    516.774628
PG14  17767.147070  13374.262197  14642.536060     49.431332
PG15   9443.339685 -13558.225855  20292.988795     37.516236
PG16 -25452.994092    246.381544   8048.972109   -502.897657
PG17  13224.497008  21414.422555  -7888.147154    713.931239
PG18   -686.805720 -19216.686165  18253.354975   -256.955242
PG19  15774.874577  14714.800419 -15915.716277    313.903132
PG20  26317.524144  -2256.060774   1496.421909    434.799318
PG21 -17054.021818  18913.251260   6275.407189    153.929563
PG22 -16344.950871 -11505.680166 -17119.367664    477.527237
PG23  -9163.696169 -14660.766984  20210.645266     22.434560
PG24  14441.077709 -21985.287850    793.162511   -180.530857
PG25     32.594061 -15584.177034 -21833.698794    441.221985
PG26 -25918.466846  -4835.825620  -4599.538385    241.056084
PG27 -16054.839568   -803.642360  20966.562207     42.247297
PG28 -12984.080243  -7955.991352 -21785.354812     75.322624
PG29  -1895.989552 -24864.442236  -9077.720118   -598.599097
PG30   8627.414588  14043.180600  20895.133744   -518.426563
PG31 -18686.199376   1781.612756 -19137.753706   -215.647613
PG32 -15855.916819 -18837.393305 -10035.139159   -471.026134
PJ02 -28792.012173  23359.474335  25115.652499      0.101021
PJ03 -30542.092924  26525.114078  16903.710519      3.689918
PJ04 -26321.085809  19857.223996 -21107.796225     94.423475
PR01   9325.348698  18166.395320 -15290.955498     57.076326
PR02  19054.709073  16751.920300   2354.064996    -22.861042
PR03  17629.156485   5103.646185  17740.175100     77.425370
PR04   6392.415899  -8785.080808  23113.305415    186.308117
PR05  -8181.888007 -18171.877711  15951.914166    112.193542
PR07 -17320.090741  -4588.105032 -18131.128187     55.434922
PR08  -6253.599792   9007.952473 -22965.211769    -70.673254
PR09 -16443.188859  -4446.289016 -18937.542460    118.942361
PR11 -19443.838543  11854.787127  11484.802828    -51.206290
PR12  -1656.439235  11811.170150  22573.887476     27.078048
PR13  14814.353736   5366.633665  20045.233316    -34.781461
PR14  24525.697650  -5328.032716   4627.691779     24.659027
PR15  18739.768022 -11984.643121 -12471.148350     89.423502
PR16   2001.875727 -11760.374169 -22542.114779     14.336001
PR17  11676.963334  -5784.993209 -21918.963740    627.997055
PR18  10355.020482 -20525.109994 -11103.906848     80.404571
PR19   5129.413571 -24656.070258   4054.838558   -231.798026
PR20  -5599.606046 -13845.106136  20694.483699    -92.461754
PR21 -11793.011995   7433.197818  21360.635170     -5.776372
PR22 -11004.872594  20611.167246  10236.547793     81.834018
PR24   6768.806705  13142.362564 -20779.924175    168.392889
PR25 -12201.933037   5024.466285  21833.437247     60.543485
EOF
